*******************************************************************************
JPL/HORIZONS              230 Athamantis (A882 RA)         2020-Jun-22 08:42:32
Rec #:     230 (+COV) Soln.date: 2020-May-20_01:01:43   # obs: 2565 (1882-2020)
 
IAU76/J2000 helio. ecliptic osc. elements (au, days, deg., period=Julian yrs):
 
  EPOCH=  2452758.5 ! 2003-Apr-29.00 (TDB)         Residual RMS= .28638
   EC= .06184424188195758  QR= 2.235008308989157   TP= 2453137.839997266
   OM= 239.9909938258059   W=  139.1358754099509   IN= 9.434345046727699
   A= 2.382342473143932    MA= 258.3221345671216   ADIST= 2.529676637298706
   PER= 3.67718            N= .268038866           ANGMOM= .026500338
   DAN= 2.48967            DDN= 2.26719            L= 19.5125545
   B= 6.1565694            MOID= 1.24579           TP= 2004-May-12.3399972660
 
Asteroid physical parameters (km, seconds, rotational period in hours):
   GM= n.a.                RAD= 55.666             ROTPER= 24.0055
   H= 7.3                  G= .270                 B-V= .871
                           ALBEDO= .164            STYP= Sl
 
ASTEROID comments: 
1: soln ref.= JPL#96, OCC=0
2: source=ORB
*******************************************************************************
 
 
*******************************************************************************
Ephemeris / WWW_USER Mon Jun 22 08:42:32 2020 Pasadena, USA      / Horizons
*******************************************************************************
Target body name: 230 Athamantis (A882 RA)        {source: JPL#96}
Center body name: Solar System Barycenter (0)     {source: DE431}
Center-site name: BODY CENTER
*******************************************************************************
Start time      : A.D. 1969-Jun-28 00:00:00.0000 TDB
Stop  time      : A.D. 2071-May-04 00:00:00.0000 TDB
Step-size       : 7200 minutes
*******************************************************************************
Center geodetic : 0.00000000,0.00000000,0.0000000 {E-lon(deg),Lat(deg),Alt(km)}
Center cylindric: 0.00000000,0.00000000,0.0000000 {E-lon(deg),Dxy(km),Dz(km)}
Center radii    : (undefined)                                                  
Small perturbers: Yes                             {source: SB431-N16}
Output units    : AU-D
Output type     : GEOMETRIC cartesian states
Output format   : 2 (position and velocity)
Reference frame : Ecliptic of J2000.0
*******************************************************************************
Initial IAU76/J2000 heliocentric ecliptic osculating elements (au, days, deg.):
  EPOCH=  2452758.5 ! 2003-Apr-29.00 (TDB)         Residual RMS= .28638        
   EC= .06184424188195758  QR= 2.235008308989157   TP= 2453137.839997266       
   OM= 239.9909938258059   W=  139.1358754099509   IN= 9.434345046727699       
  Equivalent ICRF heliocentric equatorial cartesian coordinates (au, au/d):
   X= 1.224809338246458E-02  Y=-2.293618546569770E+00  Z=-7.739861208335408E-01
  VX= 1.083299172415112E-02 VY= 1.756254830885423E-04 VZ= 1.699274349293174E-03
Asteroid physical parameters (km, seconds, rotational period in hours):        
   GM= n.a.                RAD= 55.666             ROTPER= 24.0055             
   H= 7.3                  G= .270                 B-V= .871                   
                           ALBEDO= .164            STYP= Sl                    
*******************************************************************************
            JDTDB,            Calendar Date (TDB),        delta-T,                      X,                      Y,                      Z,                     VX,                     VY,                     VZ,
******************************************************************************************************************************************************************************************************************
$$SOE
2468960.500000000, A.D. 2047-Sep-07 00:00:00.0000,      69.182561,  8.951540021333492E-01, -2.168307332794662E+00,  3.122473393821039E-01,  9.984985082186320E-03,  5.020611170085669E-03,  1.005092805606550E-03,
2468965.500000000, A.D. 2047-Sep-12 00:00:00.0000,      69.182497,  9.448229623986693E-01, -2.142600855167427E+00,  3.171850507694308E-01,  9.881598867796193E-03,  5.261672328274470E-03,  9.698744436448043E-04,
2468970.500000000, A.D. 2047-Sep-17 00:00:00.0000,      69.182445,  9.939599971763501E-01, -2.115693814704428E+00,  3.219449228683702E-01,  9.772216609167330E-03,  5.500810325023349E-03,  9.339595350625527E-04,
2468975.500000000, A.D. 2047-Sep-22 00:00:00.0000,      69.182405,  1.042535155523566E+00, -2.087596218025550E+00,  3.265235102072341E-01,  9.656850711114905E-03,  5.737868614368855E-03,  8.973631025400741E-04,
2468980.500000000, A.D. 2047-Sep-27 00:00:00.0000,      69.182377,  1.090518559020787E+00, -2.058318857703338E+00,  3.309174442058154E-01,  9.535517797524226E-03,  5.972689379563152E-03,  8.601008812276814E-04,
2468985.500000000, A.D. 2047-Oct-02 00:00:00.0000,      69.182358,  1.137880423156373E+00, -2.027873318335255E+00,  3.351234367554400E-01,  9.408238826747002E-03,  6.205113647017901E-03,  8.221893256512007E-04,
2468990.500000000, A.D. 2047-Oct-07 00:00:00.0000,      69.182351,  1.184591079283518E+00, -1.996271982027056E+00,  3.391382838309315E-01,  9.275039205116638E-03,  6.434981407899191E-03,  7.836456155790784E-04,
2468995.500000000, A.D. 2047-Oct-12 00:00:00.0000,      69.182358,  1.230620997139634E+00, -1.963528033249451E+00,  3.429588691294857E-01,  9.135948898364464E-03,  6.662131747173345E-03,  7.444876609366648E-04,
2469000.500000000, A.D. 2047-Oct-17 00:00:00.0000,      69.182378,  1.275940807916706E+00, -1.929655463031531E+00,  3.465821677319162E-01,  8.991002540485109E-03,  6.886402979800390E-03,  7.047341058469635E-04,
2469005.500000000, A.D. 2047-Oct-22 00:00:00.0000,      69.182411,  1.320521327868234E+00, -1.894669072455792E+00,  3.500052497818799E-01,  8.840239539394354E-03,  7.107632793903976E-03,  6.644043317637468E-04,
2469010.500000000, A.D. 2047-Oct-27 00:00:00.0000,      69.182455,  1.364333582434910E+00, -1.858584475419737E+00,  3.532252841781793E-01,  8.683704178634901E-03,  7.325658400996688E-03,  6.235184595328511E-04,
2469015.500000000, A.D. 2047-Nov-01 00:00:00.0000,      69.182509,  1.407348830867380E+00, -1.821418100627982E+00,  3.562395422741487E-01,  8.521445714391692E-03,  7.540316693651151E-03,  5.820973501149656E-04,
2469020.500000000, A.D. 2047-Nov-06 00:00:00.0000,      69.182574,  1.449538591321313E+00, -1.783187192776351E+00,  3.590454015767994E-01,  8.353518467367635E-03,  7.751444411067623E-03,  5.401626037486041E-04,
2469025.500000000, A.D. 2047-Nov-11 00:00:00.0000,      69.182651,  1.490874666398840E+00, -1.743909812888524E+00,  3.616403494379009E-01,  8.179981909451229E-03,  7.958878312409106E-03,  4.977365575861048E-04,
2469030.500000000, A.D. 2047-Nov-16 00:00:00.0000,      69.182739,  1.531329169109933E+00, -1.703604837767823E+00,  3.640219867297392E-01,  8.000900744945980E-03,  8.162455357312958E-03,  4.548422819442344E-04,
2469035.500000000, A.D. 2047-Nov-21 00:00:00.0000,      69.182838,  1.570874549225109E+00, -1.662291958529357E+00,  3.661880314986953E-01,  7.816344985757877E-03,  8.362012893205607E-03,  4.115035751665693E-04,
2469040.500000000, A.D. 2047-Nov-26 00:00:00.0000,      69.182945,  1.609483619987573E+00, -1.619991678178852E+00,  3.681363225894513E-01,  7.626390019881712E-03,  8.557388849299604E-03,  3.677449569963352E-04,
2469045.500000000, A.D. 2047-Dec-01 00:00:00.0000,      69.183058,  1.647129585149858E+00, -1.576725308205021E+00,  3.698648232321428E-01,  7.431116672623890E-03,  8.748421937148483E-03,  3.235916603680830E-04,
2469050.500000000, A.D. 2047-Dec-06 00:00:00.0000,      69.183178,  1.683786066297360E+00, -1.532514964153203E+00,  3.713716245843834E-01,  7.230611260062071E-03,  8.934951857546091E-03,  2.790696215576899E-04,
2469055.500000000, A.D. 2047-Dec-11 00:00:00.0000,      69.183305,  1.719427130418772E+00, -1.487383560149237E+00,  3.726549492198493E-01,  7.024965634262286E-03,  9.116819513477899E-03,  2.342054686508144E-04,
2469060.500000000, A.D. 2047-Dec-16 00:00:00.0000,      69.183439,  1.754027317681007E+00, -1.441354802344175E+00,  3.737131545549417E-01,  6.814277219774629E-03,  9.293867228765141E-03,  1.890265083007352E-04,
2469065.500000000, A.D. 2047-Dec-21 00:00:00.0000,      69.183578,  1.787561669363741E+00, -1.394453181252423E+00,  3.745447362048981E-01,  6.598649040902812E-03,  9.465938971981417E-03,  1.435607107432424E-04,
2469070.500000000, A.D. 2047-Dec-26 00:00:00.0000,      69.183719,  1.820005755906081E+00, -1.346703962958044E+00,  3.751483312604996E-01,  6.378189739177566E-03,  9.632880585192722E-03,  9.783669300519199E-05,
2469075.500000000, A.D. 2047-Dec-31 00:00:00.0000,      69.183861,  1.851335705014760E+00, -1.298133179166146E+00,  3.755227214760556E-01,  6.153013580384581E-03,  9.794540017133426E-03,  5.188370018065838E-05,
2469080.500000000, A.D. 2048-Jan-05 00:00:00.0000,      69.184003,  1.881528229780085E+00, -1.248767616077775E+00,  3.756668363586080E-01,  5.923240450563287E-03,  9.950767560603358E-03,  5.731584623315518E-06,
2469085.500000000, A.D. 2048-Jan-10 00:00:00.0000,      69.184147,  1.910560656743739E+00, -1.198634802067652E+00,  3.755797561478331E-01,  5.688995840748455E-03,  1.010141609388447E-02, -4.058921694658192E-05,
2469090.500000000, A.D. 2048-Jan-15 00:00:00.0000,      69.184291,  1.938410953862473E+00, -1.147762994145892E+00,  3.752607146767647E-01,  5.450410820631735E-03,  1.024634132556083E-02, -8.704770815567254E-05,
2469095.500000000, A.D. 2048-Jan-20 00:00:00.0000,      69.184433,  1.965057758312668E+00, -1.096181163189707E+00,  3.747091021051348E-01,  5.207622001209221E-03,  1.038540204147467E-02, -1.336123591850197E-04,
